STARLINK-31867          
1 60139U 24120E   25314.58176761  .00019989  00000+0  62754-3 0  9996
2 60139  53.1566 152.9381 0001704 166.8597 193.2450 15.33033015 78148
STARLINK-31694          
1 60140U 24120F   25315.28052615 -.00000163  00000+0  66504-5 0  9991
2 60140  53.1585 150.1779 0001884  84.3944 275.7271 15.30189760 78324
STARLINK-32036          
1 60141U 24120G   25315.27946515  .00000713  00000+0  36188-4 0  9996
2 60141  53.1591 150.1708 0001220  93.8540 266.2600 15.30193541 78328
STARLINK-32031          
1 60142U 24120H   25315.27313682  .00000399  00000+0  25617-4 0  9995
2 60142  53.1586 150.1306 0001473  86.6379 273.4790 15.30193472 78320
STARLINK-32027          
1 60143U 24120J   25314.83797475 -.00000257  00000+0  34298-5 0  9993
2 60143  53.1607 151.6369 0000982  69.0832 291.0274 15.30196696 78260
STARLINK-32033          
1 60144U 24120K   25315.24793339  .00001295  00000+0  54511-4 0  9996
2 60144  53.1600 149.9724 0001041  93.1232 266.9888 15.31033319 78241
STARLINK-32029          
1 60145U 24120L   25314.93705967  .00002369  00000+0  92128-4 0  9991
2 60145  53.1586 151.5861 0001586  92.2054 267.9129 15.30181307 78195
STARLINK-32127          
1 60146U 24120M   25314.96648478 -.00008259  00000+0 -26707-3 0  9993
2 60146  53.1590 151.0596 0001247  67.5810 292.5323 15.30194916 78202
STARLINK-32019          
1 60147U 24120N   25315.23725584  .00004850  00000+0  17580-3 0  9999
2 60147  53.1601 149.9026 0001227 102.0669 258.0469 15.30196956 78243
STARLINK-32021          
1 60148U 24120P   25315.24366428 -.00004934  00000+0 -15443-3 0  9990
2 60148  53.1592 139.9946 0002024  80.7260 279.3970 15.30220638 78460
STARLINK-32022          
1 60149U 24120Q   25314.92756582  .00000343  00000+0  23702-4 0  9995
2 60149  53.1594 151.5269 0001192  93.0360 267.0778 15.30196143 78276
STARLINK-32014          
1 60150U 24120R   25315.24464087 -.00001029  00000+0 -22618-4 0  9998
2 60150  53.1562 149.9490 0001517  91.7532 268.3643 15.30204610 78248
STARLINK-32004          
1 60151U 24120S   25314.98654980  .00000270  00000+0  21243-4 0  9990
2 60151  53.1588 151.1825 0001419 100.6531 259.4630 15.30193426 78287
STARLINK-32147          
1 60152U 24120T   25315.28368099  .00008179  00000+0  28792-3 0  9999
2 60152  53.1623 150.1959 0000698  63.6445 296.4627 15.30205210 78243
STARLINK-32131          
1 60153U 24120U   25315.26680386  .00000219  00000+0  19540-4 0  9993
2 60153  53.1585 150.0877 0001314  89.4181 270.6970 15.30191266 78327
STARLINK-32145          
1 60154U 24120V   25315.24038913  .00003203  00000+0  12012-3 0  9997
2 60154  53.1572 149.9215 0001096  85.4337 274.6789 15.30222543 78249
