[{"OBJECT_NAME":"STARLINK-31867","OBJECT_ID":"2024-120E","EPOCH":"2025-11-10T13:57:44.721504","MEAN_MOTION":15.33033015,"ECCENTRICITY":0.00017045,"INCLINATION":53.1566,"RA_OF_ASC_NODE":152.9381,"ARG_OF_PERICENTER":166.8597,"MEAN_ANOMALY":193.245,"EPHEMERIS_TYPE":0,"CLASSIFICATION_TYPE":"U","NORAD_CAT_ID":60139,"ELEMENT_SET_NO":999,"REV_AT_EPOCH":7814,"BSTAR":0.0006275358,"MEAN_MOTION_DOT":0.00019989,"MEAN_MOTION_DDOT":0},{"OBJECT_NAME":"STARLINK-31694","OBJECT_ID":"2024-120F","EPOCH":"2025-11-11T06:43:57.459360","MEAN_MOTION":15.3018976,"ECCENTRICITY":0.00018845,"INCLINATION":53.1585,"RA_OF_ASC_NODE":150.1779,"ARG_OF_PERICENTER":84.3944,"MEAN_ANOMALY":275.7271,"EPHEMERIS_TYPE":0,"CLASSIFICATION_TYPE":"U","NORAD_CAT_ID":60140,"ELEMENT_SET_NO":999,"REV_AT_EPOCH":7832,"BSTAR":6.650442e-6,"MEAN_MOTION_DOT":-1.63e-6,"MEAN_MOTION_DDOT":0},{"OBJECT_NAME":"STARLINK-32036","OBJECT_ID":"2024-120G","EPOCH":"2025-11-11T06:42:25.788960","MEAN_MOTION":15.30193541,"ECCENTRICITY":0.00012203,"INCLINATION":53.1591,"RA_OF_ASC_NODE":150.1708,"ARG_OF_PERICENTER":93.854,"MEAN_ANOMALY":266.26,"EPHEMERIS_TYPE":0,"CLASSIFICATION_TYPE":"U","NORAD_CAT_ID":60141,"ELEMENT_SET_NO":999,"REV_AT_EPOCH":7832,"BSTAR":3.6188483e-5,"MEAN_MOTION_DOT":7.13e-6,"MEAN_MOTION_DDOT":0},{"OBJECT_NAME":"STARLINK-32031","OBJECT_ID":"2024-120H","EPOCH":"2025-11-11T06:33:19.021248","MEAN_MOTION":15.30193472,"ECCENTRICITY":0.00014736,"INCLINATION":53.1586,"RA_OF_ASC_NODE":150.1306,"ARG_OF_PERICENTER":86.6379,"MEAN_ANOMALY":273.479,"EPHEMERIS_TYPE":0,"CLASSIFICATION_TYPE":"U","NORAD_CAT_ID":60142,"ELEMENT_SET_NO":999,"REV_AT_EPOCH":7832,"BSTAR":2.5617285e-5,"MEAN_MOTION_DOT":3.99e-6,"MEAN_MOTION_DDOT":0},{"OBJECT_NAME":"STARLINK-32027","OBJECT_ID":"2024-120J","EPOCH":"2025-11-10T20:06:41.018400","MEAN_MOTION":15.30196696,"ECCENTRICITY":9.823e-5,"INCLINATION":53.1607,"RA_OF_ASC_NODE":151.6369,"ARG_OF_PERICENTER":69.0832,"MEAN_ANOMALY":291.0274,"EPHEMERIS_TYPE":0,"CLASSIFICATION_TYPE":"U","NORAD_CAT_ID":60143,"ELEMENT_SET_NO":999,"REV_AT_EPOCH":7826,"BSTAR":3.429767e-6,"MEAN_MOTION_DOT":-2.57e-6,"MEAN_MOTION_DDOT":0},{"OBJECT_NAME":"STARLINK-32033","OBJECT_ID":"2024-120K","EPOCH":"2025-11-11T05:57:01.444896","MEAN_MOTION":15.31033319,"ECCENTRICITY":0.00010414,"INCLINATION":53.16,"RA_OF_ASC_NODE":149.9724,"ARG_OF_PERICENTER":93.1232,"MEAN_ANOMALY":266.9888,"EPHEMERIS_TYPE":0,"CLASSIFICATION_TYPE":"U","NORAD_CAT_ID":60144,"ELEMENT_SET_NO":999,"REV_AT_EPOCH":7824,"BSTAR":5.4511203e-5,"MEAN_MOTION_DOT":1.295e-5,"MEAN_MOTION_DDOT":0},{"OBJECT_NAME":"STARLINK-32029","OBJECT_ID":"2024-120L","EPOCH":"2025-11-10T22:29:21.955488","MEAN_MOTION":15.30181307,"ECCENTRICITY":0.0001586,"INCLINATION":53.1586,"RA_OF_ASC_NODE":151.5861,"ARG_OF_PERICENTER":92.2054,"MEAN_ANOMALY":267.9129,"EPHEMERIS_TYPE":0,"CLASSIFICATION_TYPE":"U","NORAD_CAT_ID":60145,"ELEMENT_SET_NO":999,"REV_AT_EPOCH":7819,"BSTAR":9.2127561e-5,"MEAN_MOTION_DOT":2.369e-5,"MEAN_MOTION_DDOT":0},{"OBJECT_NAME":"STARLINK-32127","OBJECT_ID":"2024-120M","EPOCH":"2025-11-10T23:11:44.284992","MEAN_MOTION":15.30194916,"ECCENTRICITY":0.00012479,"INCLINATION":53.159,"RA_OF_ASC_NODE":151.0596,"ARG_OF_PERICENTER":67.581,"MEAN_ANOMALY":292.5323,"EPHEMERIS_TYPE":0,"CLASSIFICATION_TYPE":"U","NORAD_CAT_ID":60146,"ELEMENT_SET_NO":999,"REV_AT_EPOCH":7820,"BSTAR":-0.00026707115,"MEAN_MOTION_DOT":-8.259e-5,"MEAN_MOTION_DDOT":0},{"OBJECT_NAME":"STARLINK-32019","OBJECT_ID":"2024-120N","EPOCH":"2025-11-11T05:41:38.904576","MEAN_MOTION":15.30196956,"ECCENTRICITY":0.00012273,"INCLINATION":53.1601,"RA_OF_ASC_NODE":149.9026,"ARG_OF_PERICENTER":102.0669,"MEAN_ANOMALY":258.0469,"EPHEMERIS_TYPE":0,"CLASSIFICATION_TYPE":"U","NORAD_CAT_ID":60147,"ELEMENT_SET_NO":999,"REV_AT_EPOCH":7824,"BSTAR":0.00017579769,"MEAN_MOTION_DOT":4.85e-5,"MEAN_MOTION_DDOT":0},{"OBJECT_NAME":"STARLINK-32021","OBJECT_ID":"2024-120P","EPOCH":"2025-11-11T05:50:52.593792","MEAN_MOTION":15.30220638,"ECCENTRICITY":0.00020243,"INCLINATION":53.1592,"RA_OF_ASC_NODE":139.9946,"ARG_OF_PERICENTER":80.726,"MEAN_ANOMALY":279.397,"EPHEMERIS_TYPE":0,"CLASSIFICATION_TYPE":"U","NORAD_CAT_ID":60148,"ELEMENT_SET_NO":999,"REV_AT_EPOCH":7846,"BSTAR":-0.0001544256,"MEAN_MOTION_DOT":-4.934e-5,"MEAN_MOTION_DDOT":0},{"OBJECT_NAME":"STARLINK-32022","OBJECT_ID":"2024-120Q","EPOCH":"2025-11-10T22:15:41.686848","MEAN_MOTION":15.30196143,"ECCENTRICITY":0.00011921,"INCLINATION":53.1594,"RA_OF_ASC_NODE":151.5269,"ARG_OF_PERICENTER":93.036,"MEAN_ANOMALY":267.0778,"EPHEMERIS_TYPE":0,"CLASSIFICATION_TYPE":"U","NORAD_CAT_ID":60149,"ELEMENT_SET_NO":999,"REV_AT_EPOCH":7827,"BSTAR":2.3701693e-5,"MEAN_MOTION_DOT":3.43e-6,"MEAN_MOTION_DDOT":0},{"OBJECT_NAME":"STARLINK-32014","OBJECT_ID":"2024-120R","EPOCH":"2025-11-11T05:52:16.971168","MEAN_MOTION":15.3020461,"ECCENTRICITY":0.00015176,"INCLINATION":53.1562,"RA_OF_ASC_NODE":149.949,"ARG_OF_PERICENTER":91.7532,"MEAN_ANOMALY":268.3643,"EPHEMERIS_TYPE":0,"CLASSIFICATION_TYPE":"U","NORAD_CAT_ID":60150,"ELEMENT_SET_NO":999,"REV_AT_EPOCH":7824,"BSTAR":-2.2617771e-5,"MEAN_MOTION_DOT":-1.029e-5,"MEAN_MOTION_DDOT":0},{"OBJECT_NAME":"STARLINK-32004","OBJECT_ID":"2024-120S","EPOCH":"2025-11-10T23:40:37.902720","MEAN_MOTION":15.30193426,"ECCENTRICITY":0.00014196,"INCLINATION":53.1588,"RA_OF_ASC_NODE":151.1825,"ARG_OF_PERICENTER":100.6531,"MEAN_ANOMALY":259.463,"EPHEMERIS_TYPE":0,"CLASSIFICATION_TYPE":"U","NORAD_CAT_ID":60151,"ELEMENT_SET_NO":999,"REV_AT_EPOCH":7828,"BSTAR":2.124342e-5,"MEAN_MOTION_DOT":2.7e-6,"MEAN_MOTION_DDOT":0},{"OBJECT_NAME":"STARLINK-32147","OBJECT_ID":"2024-120T","EPOCH":"2025-11-11T06:48:30.037536","MEAN_MOTION":15.3020521,"ECCENTRICITY":6.983e-5,"INCLINATION":53.1623,"RA_OF_ASC_NODE":150.1959,"ARG_OF_PERICENTER":63.6445,"MEAN_ANOMALY":296.4627,"EPHEMERIS_TYPE":0,"CLASSIFICATION_TYPE":"U","NORAD_CAT_ID":60152,"ELEMENT_SET_NO":999,"REV_AT_EPOCH":7824,"BSTAR":0.0002879152,"MEAN_MOTION_DOT":8.179e-5,"MEAN_MOTION_DDOT":0},{"OBJECT_NAME":"STARLINK-32131","OBJECT_ID":"2024-120U","EPOCH":"2025-11-11T06:24:11.853504","MEAN_MOTION":15.30191266,"ECCENTRICITY":0.00013144,"INCLINATION":53.1585,"RA_OF_ASC_NODE":150.0877,"ARG_OF_PERICENTER":89.4181,"MEAN_ANOMALY":270.697,"EPHEMERIS_TYPE":0,"CLASSIFICATION_TYPE":"U","NORAD_CAT_ID":60153,"ELEMENT_SET_NO":999,"REV_AT_EPOCH":7832,"BSTAR":1.9539768e-5,"MEAN_MOTION_DOT":2.19e-6,"MEAN_MOTION_DDOT":0},{"OBJECT_NAME":"STARLINK-32145","OBJECT_ID":"2024-120V","EPOCH":"2025-11-11T05:46:09.620832","MEAN_MOTION":15.30222543,"ECCENTRICITY":0.00010968,"INCLINATION":53.1572,"RA_OF_ASC_NODE":149.9215,"ARG_OF_PERICENTER":85.4337,"MEAN_ANOMALY":274.6789,"EPHEMERIS_TYPE":0,"CLASSIFICATION_TYPE":"U","NORAD_CAT_ID":60154,"ELEMENT_SET_NO":999,"REV_AT_EPOCH":7824,"BSTAR":0.00012012318,"MEAN_MOTION_DOT":3.203e-5,"MEAN_MOTION_DDOT":0}]
